TJS-7                   
1 49115U 21077A   26188.62438118 -.00000108  00000+0  00000+0 0  9993
2 49115   0.3055 264.2640 0003208 114.7338  31.8966  1.00270592  9759
CHINASAT 9B             
1 49125U 21080A   26188.67691877 -.00000298  00000+0  00000+0 0  9996
2 49125   0.0146  73.4652 0002132  65.5747 131.7133  1.00272386 17852
SHIJIAN-21 (SJ-21)      
1 49330U 21094A   26188.66409697 -.00000336  00000+0  00000+0 0  9998
2 49330   5.1585  61.0526 0051447 168.7238  62.5991  1.00283348  5568
SES-17                  
1 49332U 21095A   26188.18699484 -.00000257  00000+0  00000+0 0  9995
2 49332   0.0214  43.2783 0001280  90.4716 151.6318  1.00271019 18055
SYRACUSE 4A             
1 49333U 21095B   26188.43911676  .00000000  00000+0  00000+0 0  9999
2 49333   0.0227  36.3258 0001337  64.8621  27.8151  1.00270699 18156
QZS-1R (MICHIBIKI-1R)   
1 49336U 21096A   26188.59693978 -.00000264  00000+0  00000+0 0  9995
2 49336  37.5005  79.2823 0755406 272.1222 281.4736  1.00248309 17212
ZHONGXING-1D            
1 49505U 21114A   26188.63030987 -.00000321  00000+0  00000+0 0  9998
2 49505   0.0548 243.4279 0000152  64.1837 335.0958  1.00272952 17021
STPSAT-6                
1 49817U 21118A   26188.45070525 -.00000030  00000+0  00000+0 0  9997
2 49817   0.3698  85.2070 0000931 250.4494   0.2744  1.00270202 16772
EXPRESS AMU-7           
1 50001U 21123A   26188.60216679 -.00000227  00000+0  00000+0 0  9997
2 50001   0.0337 268.8557 0000325 107.9850 270.5060  1.00272579 16743
EXPRESS AMU-3           
1 50002U 21123B   26186.92555071  .00000000  00000+0  00000+0 0  9991
2 50002   0.0178 350.4254 0000463  17.7985 351.7769  1.00269062  7223
TIANLIAN 2-02           
1 50005U 21124A   26188.61920892  .00000001  00000+0  00000+0 0  9991
2 50005   0.8511  85.8318 0001091 163.2810  70.3731  1.00271846 16829
TURKSAT 5B              
1 50212U 21126A   26188.29594251  .00000161  00000+0  00000+0 0  9990
2 50212   0.0705 336.2837 0002551  19.9544  77.5642  1.00271148 16508
INMARSAT 6-F1           
1 50319U 21128A   26188.58939976 -.00000156  00000+0  00000+0 0  9994
2 50319   0.0213 287.7868 0000020 248.9944  44.7105  1.00270094 16465
SHIYAN-12 01 (SY-12 01) 
1 50321U 21129A   26188.72390308  .00000161  00000+0  00000+0 0  9999
2 50321   3.7241  79.6371 0002705 288.2079 221.6946  1.00047762 16704
SHIYAN-12 02 (SY-12 02) 
1 50322U 21129B   26188.73612311 -.00000336  00000+0  00000+0 0  9997
2 50322   3.7234  79.6381 0003073  66.7651 149.0857  1.00481370 16703
TJS-9                   
1 50574U 21135A   26188.17822729 -.00000285  00000+0  00000+0 0  9990
2 50574   0.0309 120.5640 0003434 306.5572  59.3524  1.00267264 16637
GOES 18                 
1 51850U 22021A   26188.56312262  .00000112  00000+0  00000+0 0  9990
2 51850   0.0038 164.6235 0000549   8.2423 178.3784  1.00271393  6792
ZHONGXING-6D            
1 52255U 22038A   26187.86143309 -.00000339  00000+0  00000+0 0  9996
2 52255   0.0397  91.8561 0000589  92.9382 175.2069  1.00269269 15613
NILESAT 301             
1 52817U 22061A   26188.57142478 -.00000042  00000+0  00000+0 0  9992
2 52817   0.0517 332.9223 0004258  89.1660  62.2018  1.00273018 14940
CMS-02 (GSAT-24)        
1 52903U 22067A   26188.44665679  .00000000  00000+0  00000+0 0  9996
2 52903   0.0145  50.2966 0000861 310.3788 168.5174  1.00269528 14813
MEASAT 3D               
1 52904U 22067B   26188.30564921 -.00000226  00000+0  00000+0 0  9991
2 52904   0.0278 345.7496 0000255 118.7223  22.3254  1.00268908 14853
SES-22                  
1 52933U 22071A   26187.76106745  .00000119  00000+0  00000+0 0  9993
2 52933   0.0347 275.9106 0001018 193.2307 310.5886  1.00273213  7718
WFOV (USA 332)          
1 52940U 22073A   26188.59641978 -.00000349  00000+0  00000+0 0  9993
2 52940   3.7598  78.2722 0001399 221.8092 319.5145  1.00271689 14577
TIANLIAN 2-03           
1 53100U 22078A   26188.57489146  .00000087  00000+0  00000+0 0  9990
2 53100   0.7221  77.3842 0000937 354.5362  71.1724  1.00274302 14759
SBIRS GEO-6 (USA 336)   
1 53355U 22092A   26188.62830353 -.00000276  00000+0  00000+0 0  9995
2 53355   3.2247 317.8017 0001868 148.4671 184.5233  1.00270909 14438
EUTELSAT KONNECT VHTS   
1 53765U 22110A   26188.57333146  .00000032  00000+0  00000+0 0  9992
2 53765   0.0590  99.0397 0002950 341.7984  53.8065  1.00268582  7041
ZHONGXING-1E            
1 53813U 22112A   26188.67673529 -.00000134  00000+0  00000+0 0  9995
2 53813   0.0401 126.1645 0000602 108.7483  15.7468  1.00269849 14051
SES-20                  
1 53960U 22123A   26187.91080358 -.00000086  00000+0  00000+0 0  9994
2 53960   0.0199  67.0885 0001997  23.9896  58.5838  1.00270215 13730
SES-21                  
1 53961U 22123B   26188.54672465  .00000000  00000+0  00000+0 0  9996
2 53961   0.0389  28.8061 0000933  78.8695 243.7319  1.00268118  7417
GALAXY 33 (G-33)        
1 54026U 22128A   26188.54646465  .00000094  00000+0  00000+0 0  9998
2 54026   0.0140 318.6595 0001777 148.3980 242.1907  1.00273122 13946
GALAXY 34 (G-34)        
1 54027U 22128B   26187.69175730  .00000000  00000+0  00000+0 0  9993
2 54027   0.0172  18.6774 0001829 102.5440 283.4893  1.00275248 14101
ANGOSAT 2               
1 54033U 22131A   26187.86447644  .00000150  00000+0  00000+0 0  9995
2 54033   0.0217 125.5214 0000045 258.6800 234.8461  1.00272085 13675
